GLOBALSTAR M084         
1 38040U 11080A   25138.47981801 -.00000106  00000+0 -11549-4 0  9994
2 38040  51.9979 138.9132 0000360 355.8007 170.9401 12.62266135618912
GLOBALSTAR M080         
1 38041U 11080B   25138.44845064 -.00000099  00000+0  26063-4 0  9999
2 38041  52.0030 140.5898 0000586  90.8541  63.3163 12.62263026619030
GLOBALSTAR M082         
1 38042U 11080C   25138.62581119 -.00000103  00000+0  15952-5 0  9990
2 38042  52.0065  95.5060 0000681  86.4989  84.2960 12.62266144619763
GLOBALSTAR M092         
1 38043U 11080D   25138.83717917 -.00000106  00000+0 -14874-4 0  9996
2 38043  52.0063 185.2404 0000203 118.9588  52.9786 12.62264433618459
GLOBALSTAR M090         
1 38044U 11080E   25138.57318347 -.00000102  00000+0  88309-5 0  9992
2 38044  51.9878  89.5115 0000449  75.2529  96.6412 12.62270185619878
GLOBALSTAR M086         
1 38045U 11080F   25138.59915605 -.00000080  00000+0  13060-3 0  9990
2 38045  51.9889  89.9809 0000548 268.7493 261.6712 12.62271031619827
GLOBALSTAR M097         
1 39072U 13005A   25138.35068466 -.00000089  00000+0  80949-4 0  9998
2 39072  52.0069   5.2564 0000671  99.5696 260.5246 12.62272053567042
GLOBALSTAR M093         
1 39073U 13005B   25138.64091831 -.00000097  00000+0  36215-4 0  9999
2 39073  51.9832 357.7225 0000750 100.8205 259.2746 12.62264597567031
